[{"OBJECT_NAME":"STARLINK-5815","OBJECT_ID":"2023-028BA","EPOCH":"2026-03-09T17:33:37.566720","MEAN_MOTION":14.98334592,"ECCENTRICITY":0.00032199,"INCLINATION":70.0005,"RA_OF_ASC_NODE":204.3003,"ARG_OF_PERICENTER":269.9017,"MEAN_ANOMALY":90.1773,"EPHEMERIS_TYPE":0,"CLASSIFICATION_TYPE":"U","NORAD_CAT_ID":55789,"ELEMENT_SET_NO":999,"REV_AT_EPOCH":16703,"BSTAR":1.5170717e-5,"MEAN_MOTION_DOT":8.8e-7,"MEAN_MOTION_DDOT":0},{"OBJECT_NAME":"FENGYUN 1C DEB","OBJECT_ID":"1999-025MS","EPOCH":"2026-03-09T16:57:35.155296","MEAN_MOTION":14.61416869,"ECCENTRICITY":0.02155264,"INCLINATION":98.7394,"RA_OF_ASC_NODE":123.3199,"ARG_OF_PERICENTER":267.4845,"MEAN_ANOMALY":90.1666,"EPHEMERIS_TYPE":0,"CLASSIFICATION_TYPE":"U","NORAD_CAT_ID":30017,"ELEMENT_SET_NO":999,"REV_AT_EPOCH":1714,"BSTAR":0.0001741808,"MEAN_MOTION_DOT":1.129e-5,"MEAN_MOTION_DDOT":0}]
